NETSAT-4                
1 46504U 20068U   26197.60611441  .00010486  00000+0  22602-3 0  9996
2 46504  97.8603 208.2321 0004915 188.4532 171.6633 15.44786977320316
NETSAT-3                
1 46505U 20068V   26197.56972757  .00011163  00000+0  24996-3 0  9993
2 46505  97.8652 206.3734 0004019 204.9315 155.1738 15.43637888320213
NETSAT-1                
1 46506U 20068W   26197.92695618  .00006451  00000+0  19100-3 0  9997
2 46506  97.8754 200.7328 0002557 252.2749 107.8214 15.35269087319861
NETSAT-2                
1 46507U 20068X   26198.18486959  .00013442  00000+0  26612-3 0  9997
2 46507  97.8614 208.8690 0002447 199.7630 160.3524 15.47218690320373
GREENCUBE (IO-117)      
1 53109U 22080E   26197.28830747 -.00000003  00000+0  00000+0 0  9996
2 53109  70.1408 288.1261 0009080 283.0875  76.8771  6.42583343 93936
SITRO-AIS 5 (KATYS)     
1 57176U 23091L   26198.15872553  .00006057  00000+0  21038-3 0  9997
2 57176  97.5042 262.3544 0010448   5.4591 354.6761 15.30089905168920
SITRO-AIS 6 (CHIRKIN)   
1 57192U 23091AC  26198.14235756  .00005272  00000+0  20480-3 0  9990
2 57192  97.5050 261.2955 0010965   9.8355 350.3096 15.26458572168852
SITRO-AIS 8 (ANOKHIN)   
1 57193U 23091AD  26198.18745102  .00007836  00000+0  24889-3 0  9991
2 57193  97.5037 264.0971 0009292   0.8234 359.3021 15.32889956169045
SITRO-AIS 7 (FARTUSHNIY)
1 57194U 23091AE  26198.15176719  .00005141  00000+0  20174-3 0  9991
2 57194  97.5046 261.1140 0010944  11.0543 349.0933 15.26132235168844
SITRO-AIS 10 (BURDAEV)  
1 57199U 23091AK  26198.15478373  .00011236  00000+0  28667-3 0  9994
2 57199  97.5064 269.4349 0004689 332.7012  27.3986 15.39673143169379
SITRO-AIS 9 (SHCHUKIN)  
1 57201U 23091AM  26198.19097537  .00010905  00000+0  28298-3 0  9993
2 57201  97.5061 269.1779 0004975 332.9943  27.1042 15.39158179169364
SITRO-AIS 12 (SMIRENNIY)
1 57204U 23091AQ  26198.17587750  .00010106  00000+0  25996-3 0  9990
2 57204  97.5076 269.6485 0004531 325.0506  35.0441 15.39452874169380
SITRO-AIS 11 (SHEFFER)  
1 57208U 23091AU  26198.18082579  .00010982  00000+0  27819-3 0  9992
2 57208  97.5074 269.9195 0004455 324.4229  35.6719 15.39898274169408
SITRO-AIS 25            
1 59066U 24039R   26198.12262477  .00001767  00000+0  13958-3 0  9990
2 59066  95.3891 255.6633 0142933 222.7057 136.2991 14.93649658129198
SITRO-AIS 26            
1 59067U 24039S   26198.19512869  .00001501  00000+0  11952-3 0  9999
2 59067  95.3891 255.6045 0143266 223.0682 135.9263 14.93441050129198
SITRO-AIS 27            
1 59068U 24039T   26198.22389719  .00001503  00000+0  11862-3 0  9992
2 59068  95.3896 255.9101 0142364 221.4746 137.5607 14.93864791129226
SITRO-AIS 28            
1 59071U 24039U   26198.20066733  .00001478  00000+0  11665-3 0  9994
2 59071  95.3895 255.9430 0142240 221.4051 137.6327 14.93899653129221
GRBBETA                 
1 60237U 24128C   26198.15030373  .00001679  00000+0  12511-3 0  9998
2 60237  61.9898 111.1258 0036777 141.0827 219.2924 15.06815785110785
OOV-CUBE (TUBSAT-30)    
1 60240U 24128F   26198.06347752  .00000952  00000+0  85234-4 0  9990
2 60240  61.9940 121.3870 0040878 140.4347 219.9741 15.02878305110605
ROBUSTA-3A (MEDITERRAN*)
1 60243U 24128J   26198.16246593  .00003574  00000+0  21675-3 0  9996
2 60243  61.9863 102.2147 0037890 134.0592 226.3635 15.12002416110953
LASARSAT                
1 62391U 24247Q   26197.09385022  .00020669  00000+0  39100-3 0  9992
2 62391  44.9739  99.5612 0007476 171.6523 188.4493 15.48082110 87798
CROCUBE                 
1 62394U 24247T   26198.08492527  .00025129  00000+0  43824-3 0  9998
2 62394  44.9718  90.7884 0007819 184.7174 175.3645 15.50291791 87985
FORESAIL-1 PRIME        
1 66778U 25276DS  26198.17054757  .00002254  00000+0  11112-3 0  9999
2 66778  97.4189 270.8955 0002737  40.2765 319.8672 15.18947700 34952
KNACKSAT-2              
1 67683U 98067XZ  26197.98558317  .00034924  00000+0  38793-3 0  9995
2 67683  51.6276 144.2928 0007966 334.1850  25.8746 15.62531291 24936
