OBJECT_NAME,OBJECT_ID,EPOCH,MEAN_MOTION,ECCENTRICITY,INCLINATION,RA_OF_ASC_NODE,ARG_OF_PERICENTER,MEAN_ANOMALY,EPHEMERIS_TYPE,CLASSIFICATION_TYPE,NORAD_CAT_ID,ELEMENT_SET_NO,REV_AT_EPOCH,BSTAR,MEAN_MOTION_DOT,MEAN_MOTION_DDOT
NETSAT-4,2020-068U,2026-07-16T14:32:48.285024,15.44786977,.0004915,97.8603,208.2321,188.4532,171.6633,0,U,46504,999,32031,.22602E-3,.10486E-3,0
NETSAT-3,2020-068V,2026-07-16T13:40:24.462048,15.43637888,.0004019,97.8652,206.3734,204.9315,155.1738,0,U,46505,999,32021,.24996E-3,.11163E-3,0
NETSAT-1,2020-068W,2026-07-16T22:14:49.013952,15.35269087,.0002557,97.8754,200.7328,252.2749,107.8214,0,U,46506,999,31986,.191E-3,.6451E-4,0
NETSAT-2,2020-068X,2026-07-17T04:26:12.732576,15.47218690,.0002447,97.8614,208.8690,199.7630,160.3524,0,U,46507,999,32037,.26612E-3,.13442E-3,0
GREENCUBE (IO-117),2022-080E,2026-07-16T06:55:09.765408,6.42583343,.000908,70.1408,288.1261,283.0875,76.8771,0,U,53109,999,9393,0,-.3E-7,0
SITRO-AIS 5 (KATYS),2023-091L,2026-07-17T03:48:33.885792,15.30089905,.0010448,97.5042,262.3544,5.4591,354.6761,0,U,57176,999,16892,.21038E-3,.6057E-4,0
SITRO-AIS 6 (CHIRKIN),2023-091AC,2026-07-17T03:24:59.693184,15.26458572,.0010965,97.5050,261.2955,9.8355,350.3096,0,U,57192,999,16885,.2048E-3,.5272E-4,0
SITRO-AIS 8 (ANOKHIN),2023-091AD,2026-07-17T04:29:55.768128,15.32889956,.0009292,97.5037,264.0971,0.8234,359.3021,0,U,57193,999,16904,.24889E-3,.7836E-4,0
SITRO-AIS 7 (FARTUSHNIY),2023-091AE,2026-07-17T03:38:32.685216,15.26132235,.0010944,97.5046,261.1140,11.0543,349.0933,0,U,57194,999,16884,.20174E-3,.5141E-4,0
SITRO-AIS 10 (BURDAEV),2023-091AK,2026-07-17T03:42:53.314272,15.39673143,.0004689,97.5064,269.4349,332.7012,27.3986,0,U,57199,999,16937,.28667E-3,.11236E-3,0
SITRO-AIS 9 (SHCHUKIN),2023-091AM,2026-07-17T04:35:00.271968,15.39158179,.0004975,97.5061,269.1779,332.9943,27.1042,0,U,57201,999,16936,.28298E-3,.10905E-3,0
SITRO-AIS 12 (SMIRENNIY),2023-091AQ,2026-07-17T04:13:15.816000,15.39452874,.0004531,97.5076,269.6485,325.0506,35.0441,0,U,57204,999,16938,.25996E-3,.10106E-3,0
SITRO-AIS 11 (SHEFFER),2023-091AU,2026-07-17T04:20:23.348256,15.39898274,.0004455,97.5074,269.9195,324.4229,35.6719,0,U,57208,999,16940,.27819E-3,.10982E-3,0
SITRO-AIS 25,2024-039R,2026-07-17T02:56:34.780128,14.93649658,.0142933,95.3891,255.6633,222.7057,136.2991,0,U,59066,999,12919,.13958E-3,.1767E-4,0
SITRO-AIS 26,2024-039S,2026-07-17T04:40:59.118816,14.93441050,.0143266,95.3891,255.6045,223.0682,135.9263,0,U,59067,999,12919,.11952E-3,.1501E-4,0
SITRO-AIS 27,2024-039T,2026-07-17T05:22:24.717216,14.93864791,.0142364,95.3896,255.9101,221.4746,137.5607,0,U,59068,999,12922,.11862E-3,.1503E-4,0
SITRO-AIS 28,2024-039U,2026-07-17T04:48:57.657312,14.93899653,.014224,95.3895,255.9430,221.4051,137.6327,0,U,59071,999,12922,.11665E-3,.1478E-4,0
GRBBETA,2024-128C,2026-07-17T03:36:26.242272,15.06815785,.0036777,61.9898,111.1258,141.0827,219.2924,0,U,60237,999,11078,.12511E-3,.1679E-4,0
OOV-CUBE (TUBSAT-30),2024-128F,2026-07-17T01:31:24.457728,15.02878305,.0040878,61.9940,121.3870,140.4347,219.9741,0,U,60240,999,11060,.85234E-4,.952E-5,0
ROBUSTA-3A (MEDITERRANEE),2024-128J,2026-07-17T03:53:57.056352,15.12002416,.003789,61.9863,102.2147,134.0592,226.3635,0,U,60243,999,11095,.21675E-3,.3574E-4,0
LASARSAT,2024-247Q,2026-07-16T02:15:08.659008,15.48082110,.00074765,44.9739,99.5612,171.6523,188.4493,0,U,62391,999,8779,.39100475E-3,.20669E-3,0
CROCUBE,2024-247T,2026-07-17T02:02:17.543328,15.50291791,.0007819,44.9718,90.7884,184.7174,175.3645,0,U,62394,999,8798,.43824E-3,.25129E-3,0
FORESAIL-1 PRIME,2025-276DS,2026-07-17T04:05:35.310048,15.18947700,.0002737,97.4189,270.8955,40.2765,319.8672,0,U,66778,999,3495,.11112E-3,.2254E-4,0
KNACKSAT-2,1998-067XZ,2026-07-16T23:39:14.385888,15.62531291,.0007966,51.6276,144.2928,334.1850,25.8746,0,U,67683,999,2493,.38793E-3,.34924E-3,0
